[{"OBJECT_NAME":"STARLINK-31041","OBJECT_ID":"2023-192G","EPOCH":"2026-03-09T06:46:45.974784","MEAN_MOTION":15.30166647,"ECCENTRICITY":8.948e-5,"INCLINATION":53.1609,"RA_OF_ASC_NODE":64.5908,"ARG_OF_PERICENTER":55.0565,"MEAN_ANOMALY":305.052,"EPHEMERIS_TYPE":0,"CLASSIFICATION_TYPE":"U","NORAD_CAT_ID":58537,"ELEMENT_SET_NO":999,"REV_AT_EPOCH":12592,"BSTAR":-2.9186556e-5,"MEAN_MOTION_DOT":-1.222e-5,"MEAN_MOTION_DDOT":0},{"OBJECT_NAME":"FENGYUN 1C DEB","OBJECT_ID":"1999-025DFQ","EPOCH":"2026-03-09T11:05:09.183840","MEAN_MOTION":15.08584918,"ECCENTRICITY":0.01333512,"INCLINATION":99.3393,"RA_OF_ASC_NODE":158.3034,"ARG_OF_PERICENTER":18.9579,"MEAN_ANOMALY":341.654,"EPHEMERIS_TYPE":0,"CLASSIFICATION_TYPE":"U","NORAD_CAT_ID":33679,"ELEMENT_SET_NO":999,"REV_AT_EPOCH":95428,"BSTAR":0.0014594523,"MEAN_MOTION_DOT":0.00028083,"MEAN_MOTION_DDOT":0}]
